<?xml version="1.0" encoding="UTF-8"?>
<ndm xmlns:xsi="http://www.w3.org/2001/XMLSchema-instance" xsi:noNamespaceSchemaLocation="https://sanaregistry.org/r/ndmxml_unqualified/ndmxml-2.0.0-master-2.0.xsd">
<omm id="CCSDS_OMM_VERS" version="2.0">
<header><CREATION_DATE/><ORIGINATOR/></header><body><segment><metadata><OBJECT_NAME>ONEWEB-0645</OBJECT_NAME><OBJECT_ID>2023-029P</OBJECT_ID><CENTER_NAME>EARTH</CENTER_NAME><REF_FRAME>TEME</REF_FRAME><TIME_SYSTEM>UTC</TIME_SYSTEM><MEAN_ELEMENT_THEORY>SGP4</MEAN_ELEMENT_THEORY></metadata><data><meanElements><EPOCH>2025-07-01T01:23:14.726112</EPOCH><MEAN_MOTION>13.19726080</MEAN_MOTION><ECCENTRICITY>.0002003</ECCENTRICITY><INCLINATION>87.9218</INCLINATION><RA_OF_ASC_NODE>14.7957</RA_OF_ASC_NODE><ARG_OF_PERICENTER>98.7609</ARG_OF_PERICENTER><MEAN_ANOMALY>261.3751</MEAN_ANOMALY></meanElements><tleParameters><EPHEMERIS_TYPE>0</EPHEMERIS_TYPE><CLASSIFICATION_TYPE>U</CLASSIFICATION_TYPE><NORAD_CAT_ID>55809</NORAD_CAT_ID><ELEMENT_SET_NO>999</ELEMENT_SET_NO><REV_AT_EPOCH>11259</REV_AT_EPOCH><BSTAR>-.12957E-4</BSTAR><MEAN_MOTION_DOT>.8E-7</MEAN_MOTION_DOT><MEAN_MOTION_DDOT>0</MEAN_MOTION_DDOT></tleParameters></data></segment></body></omm>
<omm id="CCSDS_OMM_VERS" version="2.0">
<header><CREATION_DATE/><ORIGINATOR/></header><body><segment><metadata><OBJECT_NAME>ONEWEB-0646</OBJECT_NAME><OBJECT_ID>2023-029Q</OBJECT_ID><CENTER_NAME>EARTH</CENTER_NAME><REF_FRAME>TEME</REF_FRAME><TIME_SYSTEM>UTC</TIME_SYSTEM><MEAN_ELEMENT_THEORY>SGP4</MEAN_ELEMENT_THEORY></metadata><data><meanElements><EPOCH>2025-07-01T11:12:19.970784</EPOCH><MEAN_MOTION>13.19726636</MEAN_MOTION><ECCENTRICITY>.0002099</ECCENTRICITY><INCLINATION>87.9214</INCLINATION><RA_OF_ASC_NODE>14.7073</RA_OF_ASC_NODE><ARG_OF_PERICENTER>87.8123</ARG_OF_PERICENTER><MEAN_ANOMALY>272.3250</MEAN_ANOMALY></meanElements><tleParameters><EPHEMERIS_TYPE>0</EPHEMERIS_TYPE><CLASSIFICATION_TYPE>U</CLASSIFICATION_TYPE><NORAD_CAT_ID>55810</NORAD_CAT_ID><ELEMENT_SET_NO>999</ELEMENT_SET_NO><REV_AT_EPOCH>11263</REV_AT_EPOCH><BSTAR>-.23128E-5</BSTAR><MEAN_MOTION_DOT>.12E-6</MEAN_MOTION_DOT><MEAN_MOTION_DDOT>0</MEAN_MOTION_DDOT></tleParameters></data></segment></body></omm>
<omm id="CCSDS_OMM_VERS" version="2.0">
<header><CREATION_DATE/><ORIGINATOR/></header><body><segment><metadata><OBJECT_NAME>ONEWEB-0648</OBJECT_NAME><OBJECT_ID>2023-029R</OBJECT_ID><CENTER_NAME>EARTH</CENTER_NAME><REF_FRAME>TEME</REF_FRAME><TIME_SYSTEM>UTC</TIME_SYSTEM><MEAN_ELEMENT_THEORY>SGP4</MEAN_ELEMENT_THEORY></metadata><data><meanElements><EPOCH>2025-06-30T21:43:06.077280</EPOCH><MEAN_MOTION>13.14504720</MEAN_MOTION><ECCENTRICITY>.0002684</ECCENTRICITY><INCLINATION>87.9039</INCLINATION><RA_OF_ASC_NODE>359.6017</RA_OF_ASC_NODE><ARG_OF_PERICENTER>104.4758</ARG_OF_PERICENTER><MEAN_ANOMALY>255.6669</MEAN_ANOMALY></meanElements><tleParameters><EPHEMERIS_TYPE>0</EPHEMERIS_TYPE><CLASSIFICATION_TYPE>U</CLASSIFICATION_TYPE><NORAD_CAT_ID>55811</NORAD_CAT_ID><ELEMENT_SET_NO>999</ELEMENT_SET_NO><REV_AT_EPOCH>11395</REV_AT_EPOCH><BSTAR>-.5881E-3</BSTAR><MEAN_MOTION_DOT>-.205E-5</MEAN_MOTION_DOT><MEAN_MOTION_DDOT>0</MEAN_MOTION_DDOT></tleParameters></data></segment></body></omm>
<omm id="CCSDS_OMM_VERS" version="2.0">
<header><CREATION_DATE/><ORIGINATOR/></header><body><segment><metadata><OBJECT_NAME>ONEWEB-0649</OBJECT_NAME><OBJECT_ID>2023-029S</OBJECT_ID><CENTER_NAME>EARTH</CENTER_NAME><REF_FRAME>TEME</REF_FRAME><TIME_SYSTEM>UTC</TIME_SYSTEM><MEAN_ELEMENT_THEORY>SGP4</MEAN_ELEMENT_THEORY></metadata><data><meanElements><EPOCH>2025-07-01T13:57:14.428800</EPOCH><MEAN_MOTION>13.19724814</MEAN_MOTION><ECCENTRICITY>.0002272</ECCENTRICITY><INCLINATION>87.9213</INCLINATION><RA_OF_ASC_NODE>14.6735</RA_OF_ASC_NODE><ARG_OF_PERICENTER>97.2221</ARG_OF_PERICENTER><MEAN_ANOMALY>262.9170</MEAN_ANOMALY></meanElements><tleParameters><EPHEMERIS_TYPE>0</EPHEMERIS_TYPE><CLASSIFICATION_TYPE>U</CLASSIFICATION_TYPE><NORAD_CAT_ID>55812</NORAD_CAT_ID><ELEMENT_SET_NO>999</ELEMENT_SET_NO><REV_AT_EPOCH>11268</REV_AT_EPOCH><BSTAR>.55577E-4</BSTAR><MEAN_MOTION_DOT>.35E-6</MEAN_MOTION_DOT><MEAN_MOTION_DDOT>0</MEAN_MOTION_DDOT></tleParameters></data></segment></body></omm>
<omm id="CCSDS_OMM_VERS" version="2.0">
<header><CREATION_DATE/><ORIGINATOR/></header><body><segment><metadata><OBJECT_NAME>ONEWEB-0650</OBJECT_NAME><OBJECT_ID>2023-029T</OBJECT_ID><CENTER_NAME>EARTH</CENTER_NAME><REF_FRAME>TEME</REF_FRAME><TIME_SYSTEM>UTC</TIME_SYSTEM><MEAN_ELEMENT_THEORY>SGP4</MEAN_ELEMENT_THEORY></metadata><data><meanElements><EPOCH>2025-07-01T13:50:25.505376</EPOCH><MEAN_MOTION>13.19724532</MEAN_MOTION><ECCENTRICITY>.0002046</ECCENTRICITY><INCLINATION>87.9216</INCLINATION><RA_OF_ASC_NODE>14.6843</RA_OF_ASC_NODE><ARG_OF_PERICENTER>89.8643</ARG_OF_PERICENTER><MEAN_ANOMALY>270.2724</MEAN_ANOMALY></meanElements><tleParameters><EPHEMERIS_TYPE>0</EPHEMERIS_TYPE><CLASSIFICATION_TYPE>U</CLASSIFICATION_TYPE><NORAD_CAT_ID>55813</NORAD_CAT_ID><ELEMENT_SET_NO>999</ELEMENT_SET_NO><REV_AT_EPOCH>11265</REV_AT_EPOCH><BSTAR>-.10422E-3</BSTAR><MEAN_MOTION_DOT>-.29E-6</MEAN_MOTION_DOT><MEAN_MOTION_DDOT>0</MEAN_MOTION_DDOT></tleParameters></data></segment></body></omm>
<omm id="CCSDS_OMM_VERS" version="2.0">
<header><CREATION_DATE/><ORIGINATOR/></header><body><segment><metadata><OBJECT_NAME>ONEWEB-0652</OBJECT_NAME><OBJECT_ID>2023-029U</OBJECT_ID><CENTER_NAME>EARTH</CENTER_NAME><REF_FRAME>TEME</REF_FRAME><TIME_SYSTEM>UTC</TIME_SYSTEM><MEAN_ELEMENT_THEORY>SGP4</MEAN_ELEMENT_THEORY></metadata><data><meanElements><EPOCH>2025-07-01T10:02:57.992928</EPOCH><MEAN_MOTION>13.14502803</MEAN_MOTION><ECCENTRICITY>.0001696</ECCENTRICITY><INCLINATION>87.9041</INCLINATION><RA_OF_ASC_NODE>359.5097</RA_OF_ASC_NODE><ARG_OF_PERICENTER>89.3474</ARG_OF_PERICENTER><MEAN_ANOMALY>270.7850</MEAN_ANOMALY></meanElements><tleParameters><EPHEMERIS_TYPE>0</EPHEMERIS_TYPE><CLASSIFICATION_TYPE>U</CLASSIFICATION_TYPE><NORAD_CAT_ID>55814</NORAD_CAT_ID><ELEMENT_SET_NO>999</ELEMENT_SET_NO><REV_AT_EPOCH>11328</REV_AT_EPOCH><BSTAR>.16328E-3</BSTAR><MEAN_MOTION_DOT>.73E-6</MEAN_MOTION_DOT><MEAN_MOTION_DDOT>0</MEAN_MOTION_DDOT></tleParameters></data></segment></body></omm>
<omm id="CCSDS_OMM_VERS" version="2.0">
<header><CREATION_DATE/><ORIGINATOR/></header><body><segment><metadata><OBJECT_NAME>ONEWEB-0653</OBJECT_NAME><OBJECT_ID>2023-029V</OBJECT_ID><CENTER_NAME>EARTH</CENTER_NAME><REF_FRAME>TEME</REF_FRAME><TIME_SYSTEM>UTC</TIME_SYSTEM><MEAN_ELEMENT_THEORY>SGP4</MEAN_ELEMENT_THEORY></metadata><data><meanElements><EPOCH>2025-07-01T11:29:43.969632</EPOCH><MEAN_MOTION>13.14502228</MEAN_MOTION><ECCENTRICITY>.000164</ECCENTRICITY><INCLINATION>87.9042</INCLINATION><RA_OF_ASC_NODE>359.4872</RA_OF_ASC_NODE><ARG_OF_PERICENTER>96.7728</ARG_OF_PERICENTER><MEAN_ANOMALY>263.3588</MEAN_ANOMALY></meanElements><tleParameters><EPHEMERIS_TYPE>0</EPHEMERIS_TYPE><CLASSIFICATION_TYPE>U</CLASSIFICATION_TYPE><NORAD_CAT_ID>55815</NORAD_CAT_ID><ELEMENT_SET_NO>999</ELEMENT_SET_NO><REV_AT_EPOCH>11332</REV_AT_EPOCH><BSTAR>.62458E-3</BSTAR><MEAN_MOTION_DOT>.244E-5</MEAN_MOTION_DOT><MEAN_MOTION_DDOT>0</MEAN_MOTION_DDOT></tleParameters></data></segment></body></omm>
<omm id="CCSDS_OMM_VERS" version="2.0">
<header><CREATION_DATE/><ORIGINATOR/></header><body><segment><metadata><OBJECT_NAME>ONEWEB-0654</OBJECT_NAME><OBJECT_ID>2023-029W</OBJECT_ID><CENTER_NAME>EARTH</CENTER_NAME><REF_FRAME>TEME</REF_FRAME><TIME_SYSTEM>UTC</TIME_SYSTEM><MEAN_ELEMENT_THEORY>SGP4</MEAN_ELEMENT_THEORY></metadata><data><meanElements><EPOCH>2025-07-01T11:22:52.732416</EPOCH><MEAN_MOTION>13.14502844</MEAN_MOTION><ECCENTRICITY>.0001432</ECCENTRICITY><INCLINATION>87.9039</INCLINATION><RA_OF_ASC_NODE>359.4881</RA_OF_ASC_NODE><ARG_OF_PERICENTER>89.3178</ARG_OF_PERICENTER><MEAN_ANOMALY>270.8116</MEAN_ANOMALY></meanElements><tleParameters><EPHEMERIS_TYPE>0</EPHEMERIS_TYPE><CLASSIFICATION_TYPE>U</CLASSIFICATION_TYPE><NORAD_CAT_ID>55816</NORAD_CAT_ID><ELEMENT_SET_NO>999</ELEMENT_SET_NO><REV_AT_EPOCH>11334</REV_AT_EPOCH><BSTAR>.53245E-3</BSTAR><MEAN_MOTION_DOT>.21E-5</MEAN_MOTION_DOT><MEAN_MOTION_DDOT>0</MEAN_MOTION_DDOT></tleParameters></data></segment></body></omm>

</ndm>
