ONEWEB-0645             
1 55809U 23029P   25182.05780933  .00000008  00000+0 -12957-4 0  9992
2 55809  87.9218  14.7957 0002003  98.7609 261.3751 13.19726080112591
ONEWEB-0646             
1 55810U 23029Q   25182.46689781  .00000012  00000+0 -23128-5 0  9996
2 55810  87.9214  14.7073 0002099  87.8123 272.3250 13.19726636112631
ONEWEB-0648             
1 55811U 23029R   25181.90493145 -.00000205  00000+0 -58810-3 0  9991
2 55811  87.9039 359.6017 0002684 104.4758 255.6669 13.14504720113953
ONEWEB-0649             
1 55812U 23029S   25182.58141700  .00000035  00000+0  55577-4 0  9991
2 55812  87.9213  14.6735 0002272  97.2221 262.9170 13.19724814112680
ONEWEB-0650             
1 55813U 23029T   25182.57668409 -.00000029  00000+0 -10422-3 0  9995
2 55813  87.9216  14.6843 0002046  89.8643 270.2724 13.19724532112659
ONEWEB-0652             
1 55814U 23029U   25182.41872677  .00000073  00000+0  16328-3 0  9991
2 55814  87.9041 359.5097 0001696  89.3474 270.7850 13.14502803113280
ONEWEB-0653             
1 55815U 23029V   25182.47898113  .00000244  00000+0  62458-3 0  9996
2 55815  87.9042 359.4872 0001640  96.7728 263.3588 13.14502228113327
ONEWEB-0654             
1 55816U 23029W   25182.47422144  .00000210  00000+0  53245-3 0  9991
2 55816  87.9039 359.4881 0001432  89.3178 270.8116 13.14502844113346
